     2.100          NAVIGATION                              RINEX VERSION / TYPE
fic2rin                                 12/28/2011 00:07:32 PGM / RUN BY / DATE
                                                            END OF HEADER
16 11 12 27  2  0  0.0 -.215907581151D-03 -.181898940355D-11  .000000000000D+00
     .660000000000D+02 -.121281250000D+03  .417731685916D-08 -.958898155626D+00
    -.627897679806D-05  .624152226374D-02  .473484396935D-05  .515358555603D+04
     .180000000000D+06  .745058059692D-08 -.526092763704D+00 -.763684511185D-07
     .979029475182D+00  .298125000000D+03 -.810754422147D-01 -.814641075928D-08
    -.351443210449D-09  .100000000000D+01  .166800000000D+04  .000000000000D+00
     .240000000000D+01  .000000000000D+00 -.977888703346D-08  .660000000000D+02
     .172806000000D+06  .400000000000D+01
17 11 12 27  2  0  0.0  .158279668540D-03 -.216004991671D-11  .000000000000D+00
     .380000000000D+02 -.702500000000D+02  .406338354195D-08 -.188359522785D+01
    -.358745455742D-05  .694742973428D-02  .119954347610D-04  .515362186432D+04
     .180000000000D+06  .633299350739D-07  .514867784504D+00 -.156462192535D-06
     .962413675044D+00  .150593750000D+03 -.238285300058D+01 -.757888711964D-08
     .297869550320D-09  .100000000000D+01  .166800000000D+04  .000000000000D+00
     .240000000000D+01  .000000000000D+00 -.107102096081D-07  .380000000000D+02
     .172806000000D+06  .400000000000D+01
19 11 12 27  2  0  0.0 -.219285488129D-03 -.386535248253D-11  .000000000000D+00
     .320000000000D+02 -.545312500000D+02  .416231623432D-08 -.269219964465D+01
    -.279583036900D-05  .776169216260D-02  .128466635942D-04  .515373824883D+04
     .180000000000D+06 -.912696123123D-07  .568290283137D+00 -.260770320892D-07
     .959798097478D+00  .131031250000D+03  .136417892090D+00 -.769317759458D-08
     .375729936374D-09  .100000000000D+01  .166800000000D+04  .000000000000D+00
     .240000000000D+01  .000000000000D+00 -.144354999065D-07  .320000000000D+02
     .172806000000D+06  .400000000000D+01
20 11 12 27  2  0  0.0  .588004477322D-04  .795807864051D-12  .000000000000D+00
     .530000000000D+02 -.217187500000D+02  .553665919551D-08 -.544878467804D-04
    -.130012631416D-05  .503785745241D-02  .674277544022D-05  .515379490471D+04
     .180000000000D+06 -.465661287308D-07  .253442689952D+01  .726431608200D-07
     .931311062375D+00  .237093750000D+03  .126204624317D+01 -.854571310611D-08
    -.450733060555D-09  .100000000000D+01  .166800000000D+04  .000000000000D+00
     .240000000000D+01  .000000000000D+00 -.791624188423D-08  .530000000000D+02
     .172806000000D+06  .400000000000D+01
21 11 12 27  2  0  0.0 -.193501822650D-03 -.250111042988D-11  .000000000000D+00
     .830000000000D+02  .403437500000D+02  .555737434409D-08  .623421557862D+00
     .229105353355D-05  .183351356536D-01  .622309744358D-05  .515366468811D+04
     .180000000000D+06 -.273808836937D-06  .153572000291D+01  .240281224251D-06
     .930971725361D+00  .246312500000D+03 -.230881368231D+01 -.875715048475D-08
     .278583032673D-09  .100000000000D+01  .166800000000D+04  .000000000000D+00
     .240000000000D+01  .000000000000D+00 -.111758708954D-07  .830000000000D+02
     .172806000000D+06  .400000000000D+01
22 11 12 27  2  0  0.0  .143023673445D-03 -.227373675443D-12  .000000000000D+00
     .320000000000D+02 -.274687500000D+02  .546915638374D-08 -.131025578537D+01
    -.131875276566D-05  .573083746713D-02  .716559588909D-05  .515369196510D+04
     .180000000000D+06  .577419996262D-07  .259193726233D+01  .169500708580D-06
     .928730853779D+00  .222687500000D+03 -.198123337213D+01 -.843785147038D-08
    -.483591572101D-09  .100000000000D+01  .166800000000D+04  .000000000000D+00
     .240000000000D+01  .000000000000D+00 -.167638063431D-07  .320000000000D+02
     .172806000000D+06  .400000000000D+01
23 11 12 27  2  0  0.0  .247323419899D-03 -.329691829393D-11  .000000000000D+00
     .120000000000D+02  .911250000000D+02  .423017620382D-08  .311771953484D+01
     .474601984024D-05  .751772325020D-02  .122301280499D-04  .515369968605D+04
     .180000000000D+06 -.987201929092D-07 -.264745783857D+01 -.577419996262D-07
     .962316578245D+00  .145875000000D+03 -.302835784813D+01 -.768496296670D-08
    -.107147320259D-09  .100000000000D+01  .166800000000D+04  .000000000000D+00
     .240000000000D+01  .000000000000D+00 -.204890966415D-07  .120000000000D+02
     .172806000000D+06  .400000000000D+01
25 11 12 27  2  0  0.0  .306135043502D-04  .454747350886D-12  .000000000000D+00
     .840000000000D+02 -.106406250000D+03  .452125975719D-08  .522013233775D-01
    -.558979809284D-05  .104733672924D-02  .364333391190D-05  .515378902626D+04
     .180000000000D+06  .745058059692D-08 -.576448203381D+00 -.484287738800D-07
     .966920197113D+00  .309218750000D+03  .795007664106D+00 -.831284626341D-08
    -.367158150754D-09  .100000000000D+01  .166800000000D+04  .000000000000D+00
     .240000000000D+01  .000000000000D+00  .512227416039D-08  .840000000000D+02
     .172806000000D+06  .400000000000D+01
26 11 12 27  2  0  0.0 -.276310835034D-03 -.139834810398D-10  .000000000000D+00
     .220000000000D+02  .872187500000D+02  .364515183521D-08  .298240598205D+01
     .428408384323D-05  .205485874321D-01  .116005539894D-04  .515365799141D+04
     .180000000000D+06  .139698386192D-06 -.257801267116D+01 -.249594449997D-06
     .985343713418D+00  .164250000000D+03  .116676821585D+01 -.721744349263D-08
    -.475019786481D-10  .100000000000D+01  .166800000000D+04  .000000000000D+00
     .240000000000D+01  .000000000000D+00 -.605359673500D-08  .220000000000D+02
     .172806000000D+06  .400000000000D+01
27 11 12 27  2  0  0.0  .339939258993D-03  .386535248253D-11  .000000000000D+00
     .560000000000D+02  .101031250000D+03  .408481300600D-08 -.234586008871D+01
     .565312802792D-05  .219458549982D-01  .258535146713D-05  .515357773590D+04
     .180000000000D+06  .651925802231D-07 -.165358799135D+01  .324100255966D-06
     .981549584177D+00  .337250000000D+03 -.115605965843D+01 -.779318176016D-08
     .343942898031D-09  .100000000000D+01  .166800000000D+04  .000000000000D+00
     .340000000000D+01  .000000000000D+00 -.419095158577D-08  .560000000000D+02
     .172806000000D+06  .400000000000D+01
28 11 12 27  2  0  0.0  .968729145825D-04  .363797880709D-11  .000000000000D+00
     .340000000000D+02 -.109437500000D+03  .432518016111D-08 -.129416245033D+01
    -.548921525478D-05  .177218921017D-01  .410526990891D-05  .515370609856D+04
     .180000000000D+06  .165775418282D-06 -.519153031436D+00  .478699803352D-06
     .977366769306D+00  .307343750000D+03 -.186216597665D+01 -.821784230612D-08
    -.439661170795D-09  .100000000000D+01  .166800000000D+04  .000000000000D+00
     .240000000000D+01  .000000000000D+00 -.107102096081D-07  .340000000000D+02
     .172806000000D+06  .400000000000D+01
29 11 12 27  2  0  0.0  .269624404609D-03  .329691829393D-11  .000000000000D+00
     .820000000000D+02 -.529062500000D+02  .418660296025D-08  .867583236290D+00
    -.286474823952D-05  .212822749745D-02  .119153410196D-04  .515367035675D+04
     .180000000000D+06  .167638063431D-07  .523355052959D+00 -.502914190292D-07
     .962903113305D+00  .153093750000D+03 -.119504173952D+01 -.778711007868D-08
     .227152318949D-09  .100000000000D+01  .166800000000D+04  .000000000000D+00
     .240000000000D+01  .000000000000D+00 -.931322574615D-08  .820000000000D+02
     .172806000000D+06  .400000000000D+01
30 11 12 27  2  0  0.0  .104955397546D-04 -.117097442853D-10  .000000000000D+00
     .550000000000D+02 -.106562500000D+03  .466590863954D-08 -.210123023992D+01
    -.534392893314D-05  .109136519022D-01  .287592411041D-05  .515359816551D+04
     .180000000000D+06  .106170773506D-06 -.665926053099D+00  .108033418655D-06
     .958134197861D+00  .320687500000D+03  .155474868161D+01 -.826284418063D-08
    -.322513433979D-09  .100000000000D+01  .166800000000D+04  .000000000000D+00
     .965000000000D+01  .000000000000D+00 -.419095158577D-08  .550000000000D+02
     .172806000000D+06  .400000000000D+01
31 11 12 27  2  0  0.0  .187708996236D-03  .488853402203D-11  .000000000000D+00
     .520000000000D+02  .813125000000D+02  .432268005698D-08  .152603882361D+01
     .415369868279D-05  .799014302902D-02  .201165676117D-05  .515355309677D+04
     .180000000000D+06  .206753611565D-06 -.159798927188D+01 -.279396772385D-07
     .980321673647D+00  .346093750000D+03 -.939204586509D+00 -.817498337801D-08
     .169649923743D-09  .100000000000D+01  .166800000000D+04  .000000000000D+00
     .240000000000D+01  .000000000000D+00 -.130385160446D-07  .520000000000D+02
     .172806000000D+06  .400000000000D+01
32 11 12 27  2  0  0.0 -.383372884244D-03 -.579802872380D-11  .000000000000D+00
     .350000000000D+02 -.162187500000D+02  .484734476851D-08  .221698701667D+01
    -.953674316406D-06  .120032771956D-01  .784546136856D-05  .515376895332D+04
     .180000000000D+06  .154599547386D-06  .266359217335D+01  .162050127983D-06
     .953023521346D+00  .222500000000D+03 -.644354086928D+00 -.799140430264D-08
    -.647526972098D-09  .100000000000D+01  .166800000000D+04  .000000000000D+00
     .240000000000D+01  .000000000000D+00 -.279396772385D-08  .350000000000D+02
     .172806000000D+06  .400000000000D+01
 1 11 12 27  4  0  0.0  .158389098942D-03  .147792889038D-10  .000000000000D+00
     .100000000000D+03  .341562500000D+02  .480555731361D-08  .215231650373D+01
     .182352960110D-05  .580194056965D-03  .668689608574D-05  .515365310287D+04
     .187200000000D+06  .391155481339D-07  .152202241567D+01  .260770320892D-07
     .959666977593D+00  .250531250000D+03  .118901350030D+01 -.816248285732D-08
     .483948729836D-09  .100000000000D+01  .166800000000D+04  .000000000000D+00
     .340000000000D+01  .000000000000D+00  .791624188423D-08  .100000000000D+03
     .180006000000D+06  .400000000000D+01
